IRIDIUM 921             
1 24873U 97034E   24184.78536826  .00031386  00000+0  77128-3 0  9999
2 24873  86.3809 280.3845 0005068 168.6787 191.4583 15.40498381477587
IRIDIUM 26              
1 24903U 97043A   24184.72415707  .00000630  00000+0  20851-3 0  9990
2 24903  86.3952 257.2352 0002311  99.5166 260.6292 14.36421055406561
IRIDIUM 22              
1 24907U 97043E   24184.72213054  .00000614  00000+0  20742-3 0  9996
2 24907  86.3955 260.4860 0002231  93.7188 266.4263 14.35308862406638
DUMMY MASS 1            
1 24925U 97048A   24184.81311418  .00000749  00000+0  82035-4 0  9997
2 24925  86.3347 296.7679 0005011 320.3268  39.7589 14.86267085453226
DUMMY MASS 2            
1 24926U 97048B   24184.85228567  .00000759  00000+0  83649-4 0  9997
2 24926  86.3348 298.2960 0006163 331.8842  28.2049 14.86024995453014
IRIDIUM 29              
1 24944U 97051A   24184.78985298  .00000657  00000+0  22064-3 0  9994
2 24944  86.3954 290.3621 0002025  89.3523 270.7906 14.35758123403122
IRIDIUM 33              
1 24946U 97051C   24184.83128795  .00000534  00000+0  18263-3 0  9993
2 24946  86.3870 289.5950 0009582 129.6100 230.5943 14.34405498402655
IRIDIUM 28              
1 24948U 97051E   24184.78340825  .00000698  00000+0  23045-3 0  9994
2 24948  86.3959 288.0787 0002448 103.0437 257.1033 14.36712675403667
